*******************************************************************************
 Revised: July 31, 2013             Moon / (Earth)                          301
 
 GEOPHYSICAL DATA (updated 2018-Aug-15):
  Vol. mean radius, km  = 1737.53+-0.03    Mass, x10^22 kg       =    7.349
  Radius (gravity), km  = 1738.0           Surface emissivity    =    0.92
  Radius (IAU), km      = 1737.4           GM, km^3/s^2          = 4902.800066
  Density, g/cm^3       =    3.3437        GM 1-sigma, km^3/s^2  =  +-0.0001  
  V(1,0)                =   +0.21          Surface accel., m/s^2 =    1.62
  Earth/Moon mass ratio = 81.3005690769    Farside crust. thick. = ~80 - 90 km
  Mean crustal density  = 2.97+-.07 g/cm^3 Nearside crust. thick.= 58+-8 km 
  Heat flow, Apollo 15  = 3.1+-.6 mW/m^2   Mean angular diameter = 31'05.2"
  Heat flow, Apollo 17  = 2.2+-.5 mW/m^2   Sid. rot. rate, rad/s = 0.0000026617
  Geometric Albedo      = 0.12             Mean solar day        = 29.5306 d
  Obliquity to orbit    = 6.67 deg         Orbit period          = 27.321582 d
  Semi-major axis, a    = 384400 km        Eccentricity          = 0.05490
  Mean motion, rad/s    = 2.6616995x10^-6  Inclination           = 5.145 deg
  Apsidal period        = 3231.50 d        Nodal period          = 6798.38 d
                                 Perihelion  Aphelion    Mean
  Solar Constant (W/m^2)         1414+-7     1323+-7     1368+-7
  Maximum Planetary IR (W/m^2)   1314        1226        1268
  Minimum Planetary IR (W/m^2)      5.2         5.2         5.2
 *******************************************************************************
 
 
*******************************************************************************
Ephemeris / WWW_USER Thu Jun 18 11:45:22 2020 Pasadena, USA      / Horizons
*******************************************************************************
Target body name: Moon (301)                      {source: DE431mx}
Center body name: Solar System Barycenter (0)     {source: DE431mx}
Center-site name: BODY CENTER
*******************************************************************************
Start time      : A.D. 2000-Jun-05 00:00:00.0000 TDB
Stop  time      : A.D. 2040-May-26 00:00:00.0000 TDB
Step-size       : 14400 minutes
*******************************************************************************
Center geodetic : 0.00000000,0.00000000,0.0000000 {E-lon(deg),Lat(deg),Alt(km)}
Center cylindric: 0.00000000,0.00000000,0.0000000 {E-lon(deg),Dxy(km),Dz(km)}
Center radii    : (undefined)                                                  
Output units    : AU-D
Output type     : GEOMETRIC cartesian states
Output format   : 3 (position, velocity, LT, range, range-rate)
Reference frame : Ecliptic of J2000.0
*******************************************************************************
JDTDB
   X     Y     Z
   VX    VY    VZ
   LT    RG    RR
*******************************************************************************
$$SOE
2454690.500000000 = A.D. 2008-Aug-12 00:00:00.0000 TDB 
 X = 7.694946770679374E-01 Y =-6.553165983884517E-01 Z =-2.348069160258558E-04
 VX= 1.142775759277843E-02 VY= 1.297374677423553E-02 VZ= 3.010556627026634E-05
 LT= 5.837451998954493E-03 RG= 1.010723482112486E+00 RR= 2.885853254499685E-04
2454700.500000000 = A.D. 2008-Aug-22 00:00:00.0000 TDB 
 X = 8.691274048136516E-01 Y =-5.123618747426030E-01 Z = 1.818006572300392E-04
 VX= 8.194969973803638E-03 VY= 1.519907184122256E-02 VZ= 1.311527315321208E-05
 LT= 5.826971849677075E-03 RG= 1.008908900515476E+00 RR=-6.590779131332110E-04
2454710.500000000 = A.D. 2008-Sep-01 00:00:00.0000 TDB 
 X = 9.370727632213781E-01 Y =-3.596474067391732E-01 Z =-1.714494655157978E-04
 VX= 5.837026644453768E-03 VY= 1.539612922951058E-02 VZ=-4.564870480384608E-05
 LT= 5.796996963880213E-03 RG= 1.003718909924726E+00 RR=-6.720152164771016E-05
2454720.500000000 = A.D. 2008-Sep-11 00:00:00.0000 TDB 
 X = 9.862206066905647E-01 Y =-1.980605796132626E-01 Z =-1.305531843506024E-04
 VX= 3.633794787039823E-03 VY= 1.706100392742108E-02 VZ= 4.810734988046351E-05
 LT= 5.809663607936831E-03 RG= 1.005912071357125E+00 RR= 2.034021641379615E-04
2454730.500000000 = A.D. 2008-Sep-21 00:00:00.0000 TDB 
 X = 1.002746998589100E+00 Y =-2.336690851590583E-02 Z = 1.571128242083821E-04
 VX=-3.391022588673914E-04 VY= 1.731995348942545E-02 VZ=-2.248093032180759E-05
 LT= 5.792955962684326E-03 RG= 1.003019232257028E+00 RR=-7.425092650993324E-04
2454740.500000000 = A.D. 2008-Oct-01 00:00:00.0000 TDB 
 X = 9.873656725876725E-01 Y = 1.440237121776044E-01 Z =-2.630208215904242E-04
 VX=-2.456957013393815E-03 VY= 1.645231996971532E-02 VZ=-1.917381172130205E-05
 LT= 5.762896207714990E-03 RG= 9.978145470245846E-01 RR=-5.650927332426379E-05
2454750.500000000 = A.D. 2008-Oct-11 00:00:00.0000 TDB 
 X = 9.503677014715176E-01 Y = 3.106780196290860E-01 Z = 2.331625086035550E-06
 VX=-5.317341135624795E-03 VY= 1.681593882835363E-02 VZ= 4.918883917014400E-05
 LT= 5.774708546668798E-03 RG= 9.998597901137654E-01 RR= 1.709373821939135E-04
2454760.500000000 = A.D. 2008-Oct-21 00:00:00.0000 TDB 
 X = 8.776122375156621E-01 Y = 4.719135436600816E-01 Z = 4.031676610305991E-05
 VX=-8.888564185117388E-03 VY= 1.494912837567735E-02 VZ=-4.767741551736074E-05
 LT= 5.754995045565557E-03 RG= 9.964465032065214E-01 RR=-7.486789067005872E-04
2454770.500000000 = A.D. 2008-Oct-31 00:00:00.0000 TDB 
 X = 7.811928954171030E-01 Y = 6.110425159151384E-01 Z =-2.724712185112823E-04
 VX=-1.035610730705333E-02 VY= 1.323840666957367E-02 VZ= 1.238481621156582E-05
 LT= 5.728066287583128E-03 RG= 9.917839332972803E-01 RR=-8.988942441988956E-07
2454780.500000000 = A.D. 2008-Nov-10 00:00:00.0000 TDB 
 X = 6.653025275216089E-01 Y = 7.388640914663498E-01 Z = 1.157932035388133E-04
 VX=-1.311950135331684E-02 VY= 1.207299108627121E-02 VZ= 3.070437685147973E-05
 LT= 5.742351359874593E-03 RG= 9.942573168919108E-01 RR= 1.929739235032209E-04
2454790.500000000 = A.D. 2008-Nov-20 00:00:00.0000 TDB 
 X = 5.208328123453252E-01 Y = 8.430266163944180E-01 Z =-1.146017386867840E-04
 VX=-1.519121306382575E-02 VY= 8.584859518992079E-03 VZ=-5.050817953038367E-05
 LT= 5.723188125170862E-03 RG= 9.909393056582833E-01 RR=-6.809815276008614E-04
2454800.500000000 = A.D. 2008-Nov-30 00:00:00.0000 TDB 
 X = 3.672049492050797E-01 Y = 9.164896809675759E-01 Z =-1.973267826904301E-04
 VX=-1.568972813274237E-02 VY= 6.397462469797484E-03 VZ= 3.848595610019138E-05
 LT= 5.702261554909642E-03 RG= 9.873159823372725E-01 RR= 1.031634486160607E-04
2454810.500000000 = A.D. 2008-Dec-10 00:00:00.0000 TDB 
 X = 2.016375701483346E-01 Y = 9.699928418290539E-01 Z = 1.640228789344110E-04
 VX=-1.754784828696077E-02 VY= 3.905745992061610E-03 VZ=-2.555418969605170E-06
 LT= 5.721973204720300E-03 RG= 9.907289487031422E-01 RR= 2.525814407343998E-04
2454820.500000000 = A.D. 2008-Dec-20 00:00:00.0000 TDB 
 X = 2.376176935351831E-02 Y = 9.877114902361859E-01 Z =-2.388143474916232E-04
 VX=-1.746689737733584E-02 VY=-1.445983286318423E-04 VZ=-3.208462359833030E-05
 LT= 5.706196522974526E-03 RG= 9.879973009374518E-01 RR=-5.646353028117378E-04
2454830.500000000 = A.D. 2008-Dec-30 00:00:00.0000 TDB 
 X =-1.465132273783968E-01 Y = 9.747789385931348E-01 Z =-6.359654772619208E-05
 VX=-1.685567018600905E-02 VY=-2.288071318447457E-03 VZ= 5.091955657433942E-05
 LT= 5.693091361248018E-03 RG= 9.857282125241792E-01 RR= 2.426750761610407E-04
2454840.500000000 = A.D. 2009-Jan-09 00:00:00.0000 TDB 
 X =-3.174210957321489E-01 Y = 9.380952989129641E-01 Z = 1.237789388243602E-04
 VX=-1.719267649564963E-02 VY=-5.480806601439254E-03 VZ=-3.694680356225972E-05
 LT= 5.719743274766133E-03 RG= 9.903428483003385E-01 RR= 3.188741475358788E-04
2454850.500000000 = A.D. 2009-Jan-19 00:00:00.0000 TDB 
 X =-4.799742064551780E-01 Y = 8.640563925406920E-01 Z =-2.842058825302942E-04
 VX=-1.501556095054840E-02 VY=-8.839391981976067E-03 VZ=-2.525333241426700E-06
 LT= 5.708622265020055E-03 RG= 9.884173051528873E-01 RR=-4.356970244459226E-04
2454860.500000000 = A.D. 2009-Jan-29 00:00:00.0000 TDB 
 X =-6.208111416655661E-01 Y = 7.680092400670318E-01 Z = 8.133566615846237E-05
 VX=-1.345938945295850E-02 VY=-1.037634642903213E-02 VZ= 4.483857779095592E-05
 LT= 5.703582923143304E-03 RG= 9.875447701547175E-01 RR= 3.914887258169000E-04
2454870.500000000 = A.D. 2009-Feb-08 00:00:00.0000 TDB 
 X =-7.504499467787187E-01 Y = 6.506895187168199E-01 Z = 1.139209438097770E-05
 VX=-1.207410100424691E-02 VY=-1.337502132338429E-02 VZ=-5.551691128597135E-05
 LT= 5.736610366249575E-03 RG= 9.932632946595219E-01 RR= 3.604498804787463E-04
2454880.500000000 = A.D. 2009-Feb-18 00:00:00.0000 TDB 
 X =-8.533730262500885E-01 Y = 5.058558944810432E-01 Z =-2.381179473205485E-04
 VX=-8.541745031036876E-03 VY=-1.505818497523653E-02 VZ= 2.644369036913638E-05
 LT= 5.729523091176278E-03 RG= 9.920361710202948E-01 RR=-3.306160900329158E-04
2454890.500000000 = A.D. 2009-Feb-28 00:00:00.0000 TDB 
 X =-9.272512929660341E-01 Y = 3.533996178467184E-01 Z = 1.822147473842161E-04
 VX=-6.506129833110056E-03 VY=-1.561167365773244E-02 VZ= 2.053579680500288E-05
 LT= 5.731125395071228E-03 RG= 9.923136013396183E-01 RR= 5.196558190825463E-04
2454900.500000000 = A.D. 2009-Mar-10 00:00:00.0000 TDB 
 X =-9.809181030066321E-01 Y = 1.876169326119765E-01 Z =-1.204099723246188E-04
 VX=-3.714955770325637E-03 VY=-1.752209736086861E-02 VZ=-4.931490471193153E-05
 LT= 5.768006579951072E-03 RG= 9.986993805482297E-01 RR= 3.570955906844851E-04
2454910.500000000 = A.D. 2009-Mar-20 00:00:00.0000 TDB 
 X =-9.977020734475225E-01 Y = 1.229076554020806E-02 Z =-1.192169323890571E-04
 VX= 6.597962560631556E-05 VY=-1.714573041512895E-02 VZ= 4.545072609751747E-05
 LT= 5.762683877121312E-03 RG= 9.977777831219369E-01 RR=-2.771835422627543E-04
